{
  "links" : {
    "next" : "https://api.nasa.gov/neo/rest/v1/feed?start_date=2009-06-16&end_date=2009-06-16&detailed=true&api_key=t0TVs3DtDT2H8Oy2Zy8m2eVrNsAVKAexjcZXUckd",
    "prev" : "https://api.nasa.gov/neo/rest/v1/feed?start_date=2009-06-14&end_date=2009-06-14&detailed=true&api_key=t0TVs3DtDT2H8Oy2Zy8m2eVrNsAVKAexjcZXUckd",
    "self" : "https://api.nasa.gov/neo/rest/v1/feed?start_date=2009-06-15&end_date=2009-06-15&detailed=true&api_key=t0TVs3DtDT2H8Oy2Zy8m2eVrNsAVKAexjcZXUckd"
  },
  "element_count" : 2,
  "near_earth_objects" : {
    "2009-06-15" : [ {
      "links" : {
        "self" : "https://api.nasa.gov/neo/rest/v1/neo/3462098?api_key=t0TVs3DtDT2H8Oy2Zy8m2eVrNsAVKAexjcZXUckd"
      },
      "neo_reference_id" : "3462098",
      "name" : "(2009 KV21)",
      "nasa_jpl_url" : "http://ssd.jpl.nasa.gov/sbdb.cgi?sstr=3462098",
      "absolute_magnitude_h" : 24.6,
      "estimated_diameter" : {
        "kilometers" : {
          "estimated_diameter_min" : 0.0319561887,
          "estimated_diameter_max" : 0.0714562102
        },
        "meters" : {
          "estimated_diameter_min" : 31.9561886721,
          "estimated_diameter_max" : 71.4562101727
        },
        "miles" : {
          "estimated_diameter_min" : 0.0198566489,
          "estimated_diameter_max" : 0.0444008168
        },
        "feet" : {
          "estimated_diameter_min" : 104.8431420431,
          "estimated_diameter_max" : 234.436392583
        }
      },
      "is_potentially_hazardous_asteroid" : false,
      "close_approach_data" : [ {
        "close_approach_date" : "2009-06-15",
        "epoch_date_close_approach" : 1245049200000,
        "relative_velocity" : {
          "kilometers_per_second" : "10.9509856428",
          "kilometers_per_hour" : "39423.548314148",
          "miles_per_hour" : "24496.2597844216"
        },
        "miss_distance" : {
          "astronomical" : "0.036778193",
          "lunar" : "14.3067169189",
          "kilometers" : "5501939.5",
          "miles" : "3418746.75"
        },
        "orbiting_body" : "Earth"
      } ],
      "orbital_data" : {
        "orbit_id" : "9",
        "orbit_determination_date" : "2017-04-06 09:00:28",
        "orbit_uncertainty" : "9",
        "minimum_orbit_intersection" : ".0299966",
        "jupiter_tisserand_invariant" : "3.248",
        "epoch_osculation" : "2454984.5",
        "eccentricity" : ".5899375296442216",
        "semi_major_axis" : "2.411933170917939",
        "inclination" : "7.368062644323476",
        "ascending_node_longitude" : "76.82629487559274",
        "orbital_period" : "1368.189749567398",
        "perihelion_distance" : ".9890432743996558",
        "perihelion_argument" : "218.5255666184147",
        "aphelion_distance" : "3.834823067436222",
        "perihelion_time" : "2455022.425699166628",
        "mean_anomaly" : "350.0209370050441",
        "mean_motion" : ".2631213982664516",
        "equinox" : "J2000"
      }
    }, {
      "links" : {
        "self" : "https://api.nasa.gov/neo/rest/v1/neo/3548666?api_key=t0TVs3DtDT2H8Oy2Zy8m2eVrNsAVKAexjcZXUckd"
      },
      "neo_reference_id" : "3548666",
      "name" : "(2010 TW54)",
      "nasa_jpl_url" : "http://ssd.jpl.nasa.gov/sbdb.cgi?sstr=3548666",
      "absolute_magnitude_h" : 27.6,
      "estimated_diameter" : {
        "kilometers" : {
          "estimated_diameter_min" : 0.0080270317,
          "estimated_diameter_max" : 0.0179489885
        },
        "meters" : {
          "estimated_diameter_min" : 8.0270316728,
          "estimated_diameter_max" : 17.948988478
        },
        "miles" : {
          "estimated_diameter_min" : 0.0049877647,
          "estimated_diameter_max" : 0.0111529809
        },
        "feet" : {
          "estimated_diameter_min" : 26.3354065935,
          "estimated_diameter_max" : 58.8877593581
        }
      },
      "is_potentially_hazardous_asteroid" : false,
      "close_approach_data" : [ {
        "close_approach_date" : "2009-06-15",
        "epoch_date_close_approach" : 1245049200000,
        "relative_velocity" : {
          "kilometers_per_second" : "7.35570007",
          "kilometers_per_hour" : "26480.5202518221",
          "miles_per_hour" : "16453.9654864724"
        },
        "miss_distance" : {
          "astronomical" : "0.2092622101",
          "lunar" : "81.4029998779",
          "kilometers" : "31305180",
          "miles" : "19452138"
        },
        "orbiting_body" : "Earth"
      } ],
      "orbital_data" : {
        "orbit_id" : "13",
        "orbit_determination_date" : "2017-04-06 08:56:19",
        "orbit_uncertainty" : "6",
        "minimum_orbit_intersection" : ".00109712",
        "jupiter_tisserand_invariant" : "5.857",
        "epoch_osculation" : "2458000.5",
        "eccentricity" : ".2339628579226954",
        "semi_major_axis" : "1.043125768815186",
        "inclination" : "3.845270311721902",
        "ascending_node_longitude" : "196.3089473502822",
        "orbital_period" : "389.1378168116618",
        "perihelion_distance" : ".7990730827703767",
        "perihelion_argument" : "85.90076662731873",
        "aphelion_distance" : "1.287178454859996",
        "perihelion_time" : "2458130.801663492120",
        "mean_anomaly" : "239.455049520755",
        "mean_motion" : ".9251221147037372",
        "equinox" : "J2000"
      }
    } ]
  }
}